[{"OBJECT_NAME":"STARLINK-33967","OBJECT_ID":"2025-102F","EPOCH":"2026-03-09T13:34:48.218304","MEAN_MOTION":14.98340747,"ECCENTRICITY":0.0002934,"INCLINATION":70.0014,"RA_OF_ASC_NODE":114.7685,"ARG_OF_PERICENTER":276.8352,"MEAN_ANOMALY":83.2473,"EPHEMERIS_TYPE":0,"CLASSIFICATION_TYPE":"U","NORAD_CAT_ID":64027,"ELEMENT_SET_NO":999,"REV_AT_EPOCH":4587,"BSTAR":0.00038169,"MEAN_MOTION_DOT":4.465e-5,"MEAN_MOTION_DDOT":0},{"OBJECT_NAME":"FENGYUN 1C DEB","OBJECT_ID":"1999-025CWT","EPOCH":"2026-03-07T12:20:18.865536","MEAN_MOTION":14.78969829,"ECCENTRICITY":0.00944747,"INCLINATION":98.6527,"RA_OF_ASC_NODE":273.8426,"ARG_OF_PERICENTER":72.7865,"MEAN_ANOMALY":288.3658,"EPHEMERIS_TYPE":0,"CLASSIFICATION_TYPE":"U","NORAD_CAT_ID":32245,"ELEMENT_SET_NO":999,"REV_AT_EPOCH":67358,"BSTAR":0.0016597334,"MEAN_MOTION_DOT":0.00013167,"MEAN_MOTION_DDOT":0}]
